OBJECT_NAME,OBJECT_ID,EPOCH,MEAN_MOTION,ECCENTRICITY,INCLINATION,RA_OF_ASC_NODE,ARG_OF_PERICENTER,MEAN_ANOMALY,EPHEMERIS_TYPE,CLASSIFICATION_TYPE,NORAD_CAT_ID,ELEMENT_SET_NO,REV_AT_EPOCH,BSTAR,MEAN_MOTION_DOT,MEAN_MOTION_DDOT
NAVSTAR 46 (USA 145),1999-055A,2026-06-08T19:49:31.933920,2.00562648,.01066471,51.4714,295.8346,175.2327,189.6331,0,U,25933,999,19541,0,-.57E-6,0
UFO 10 (USA 146),1999-063A,2026-06-09T02:23:47.247360,1.00272679,.00018753,9.8496,27.2538,25.9726,217.2689,0,U,25967,999,9726,0,-.177E-5,0
ORBCOMM FM32,1999-065C,2026-06-09T03:46:09.385248,14.37121138,.00050182,45.0140,211.2502,353.6429,6.4355,0,U,25982,999,38593,.20814561E-3,.482E-5,0
XMM-NEWTON,1999-066A,2026-06-10T08:49:38.702784,0.50122831,.46777641,64.5271,283.0748,65.0342,0.0416,0,U,25989,999,2297,0,.89E-6,0
TERRA,1999-068A,2026-06-09T07:00:10.803744,14.61096772,.00010113,97.9459,210.1508,225.7960,262.5868,0,U,25994,999,40845,.76469259E-4,.332E-5,0
ASIASTAR,2000-016A,2026-06-07T15:33:02.342592,1.00273400,.00047121,9.1019,58.2562,17.4232,158.6382,0,U,26107,999,9582,0,-.321E-5,0
IMAGE,2000-017A,2026-06-08T09:09:06.780672,1.68665472,.7438912,94.2210,315.2579,288.8048,8.8428,0,U,26113,999,16135,.15647506E-1,.33E-6,0
USA 149 (DSP 20),2000-024A,2026-06-09T04:59:20.101056,1.00271898,.00016038,13.1643,11.9070,310.3002,204.8024,0,U,26356,999,3283,0,.103E-5,0
TDRS 8,2000-034A,2026-06-09T02:29:38.700096,1.00268703,.00049133,12.6714,31.3927,12.1935,336.0333,0,U,26388,999,9509,0,-.183E-5,0
ISS (ZVEZDA),2000-037A,2026-06-09T04:35:05.112096,15.49678250,.00068905,51.6332,339.6717,149.5560,210.5830,0,U,26400,999,57035,.12923528E-3,.6847E-4,0
NAVSTAR 48 (USA 151),2000-040A,2026-06-09T07:48:09.773568,2.00557610,.01211346,54.8524,215.4748,302.4295,64.7131,0,U,26407,999,18979,0,.6E-6,0
CLUSTER II-FM7 (SAMBA),2000-041A,2026-06-10T10:42:37.438560,0.44840364,.90481912,149.9132,49.6129,266.6863,359.9829,0,U,26410,999,2028,0,.4459E-4,0
CLUSTER II-FM8 (TANGO),2000-045B,2026-06-06T04:22:15.257856,0.44406384,.90462015,150.1407,49.6985,266.6195,3.2041,0,U,26464,999,2026,0,.4544E-4,0
NSS-11,2000-059A,2026-06-09T05:37:12.544608,1.00272539,.00030183,2.1050,81.4828,0.5870,75.8445,0,U,26554,999,4121,0,.42E-6,0
USA 153,2000-065A,2026-06-08T13:42:35.436672,1.00271802,.00031283,11.6099,35.4929,45.7539,155.8756,0,U,26575,999,3284,0,-.313E-5,0
AMC-6,2000-067A,2026-06-09T06:01:53.702400,1.00271487,.00036181,0.1309,83.0200,4.5670,125.4756,0,U,26580,999,9381,0,.105E-5,0
NAVSTAR 49 (USA 154),2000-071A,2026-06-07T17:02:56.324832,2.00565954,.01743136,55.6207,95.3287,266.6892,299.0269,0,U,26605,999,18732,0,.2E-6,0
ISS (DESTINY),2001-006B,2026-06-09T04:35:05.112096,15.49678250,.00068905,51.6332,339.6717,149.5560,210.5830,0,U,26700,999,57035,.12923528E-3,.6847E-4,0
ODIN,2001-007A,2026-06-09T02:04:25.357440,15.73146623,.00065244,97.3859,200.5220,153.1212,207.0391,0,U,26702,999,38812,.97686192E-3,.135654E-2,0
USA 157 (MILSTAR-2 2),2001-009A,2026-06-09T07:06:00.399744,1.00271671,.00392078,11.5336,19.8107,177.1838,17.0985,0,U,26715,999,3286,0,.12E-5,0
BSAT-2A,2001-011B,2026-06-09T02:48:44.680320,0.99178817,.00022496,10.7168,47.5670,206.3378,352.7730,0,U,26720,999,9189,0,-.208E-5,0
OMNI-M1,2001-026A,2026-06-07T00:52:23.982816,3.92401508,.00145,44.8338,247.6044,52.1985,307.9833,0,U,26857,999,20517,0,-.11E-6,0
USA 159 (DSP 21),2001-033A,2026-06-08T23:22:04.986048,0.99199497,.0001482,12.7740,16.4968,127.2512,44.8451,0,U,26880,999,3287,0,-.2E-5,0
INTELSAT 902 (IS-902),2001-039A,2026-06-09T06:00:38.892096,1.00272549,.00044264,6.0963,71.8806,4.4891,221.3211,0,U,26900,999,9061,0,-.268E-5,0
PCSAT (NO-44),2001-043C,2026-06-09T06:24:09.717696,14.31953293,.00061078,67.0511,264.7572,264.2587,95.7818,0,U,26931,999,28931,.64107764E-4,.89E-6,0
PROBA-1,2001-049B,2026-06-09T07:17:56.004288,15.07462919,.00555722,97.9600,168.5614,148.3085,212.1508,0,U,26958,999,34243,.191345E-3,.2933E-4,0
TIMED,2001-055B,2026-06-09T07:32:15.704160,14.95277358,.00006681,74.0679,250.8704,350.9805,9.1368,0,U,26998,999,32964,.11396693E-3,.1216E-4,0
MAROC-TUBSAT,2001-056D,2026-06-09T06:52:21.357984,13.70262087,.00200779,99.8079,336.9972,161.1125,18.8011,0,U,27004,999,22510,.35099921E-4,-.16E-6,0
COSMOS 2385,2001-058B,2026-06-09T06:54:35.918208,12.60565042,.00050197,82.5370,224.8976,246.3775,226.1884,0,U,27056,999,12478,.90063587E-4,.26E-6,0
COSMOS 2386,2001-058C,2026-06-09T05:44:56.235264,12.61616587,.00016488,82.5440,219.2524,99.3408,260.7869,0,U,27057,999,12550,-.44569842E-4,.3E-7,0
USA 164 (MILSTAR-2 3),2002-001A,2026-06-09T06:34:59.761056,1.00274832,.00991456,11.1697,21.9527,8.2826,345.1140,0,U,27168,999,3287,0,.108E-5,0
